[{"OBJECT_NAME":"TK-2","OBJECT_ID":"2022-031A","EPOCH":"2026-03-09T22:51:17.143200","MEAN_MOTION":15.02943491,"ECCENTRICITY":0.00164117,"INCLINATION":97.8366,"RA_OF_ASC_NODE":263.9365,"ARG_OF_PERICENTER":100.3205,"MEAN_ANOMALY":259.9871,"EPHEMERIS_TYPE":0,"CLASSIFICATION_TYPE":"U","NORAD_CAT_ID":52150,"ELEMENT_SET_NO":999,"REV_AT_EPOCH":21555,"BSTAR":0.00040164474,"MEAN_MOTION_DOT":5.349e-5,"MEAN_MOTION_DDOT":0},{"OBJECT_NAME":"STARLINK-4340","OBJECT_ID":"2022-099AF","EPOCH":"2026-03-09T21:30:59.344416","MEAN_MOTION":15.05648971,"ECCENTRICITY":2.13e-6,"INCLINATION":97.6034,"RA_OF_ASC_NODE":191.4695,"ARG_OF_PERICENTER":120.1148,"MEAN_ANOMALY":240.0081,"EPHEMERIS_TYPE":0,"CLASSIFICATION_TYPE":"U","NORAD_CAT_ID":53494,"ELEMENT_SET_NO":999,"REV_AT_EPOCH":19608,"BSTAR":5.6881355e-5,"MEAN_MOTION_DOT":7.6e-6,"MEAN_MOTION_DDOT":0}]
